ADRAS-J                 
1 58992U 24034A   24294.14841244  .00015300  00000+0  13403-2 0  9996
2 58992  98.2270 273.0962 0042295   0.1370 359.9854 14.96089500 36537
